FLOCK 4G-21             
1 62651U 25009AU  26068.19487675  .00013648  00000+0  49619-3 0  9998
2 62651  97.4032 151.1274 0000465 329.5782  30.5431 15.28381075 63677
STARLINK-36434          
1 67322U 26002T   26068.15499568  .00033696  00000+0  12314-2 0  9998
2 67322  43.0012 328.5885 0001160 309.9605  50.1144 15.27498947 10991
